{
    "links": {
        "self": "http://www.neowsapp.com/rest/v1/neo/3512700?api_key=iIulBulltgU6a56xZRHN4H3l9WmuAYTsLGpBGhQ2"
    },
    "id": "3512700",
    "neo_reference_id": "3512700",
    "name": "(2010 FT9)",
    "designation": "2010 FT9",
    "nasa_jpl_url": "http://ssd.jpl.nasa.gov/sbdb.cgi?sstr=3512700",
    "absolute_magnitude_h": 24.3,
    "estimated_diameter": {
        "kilometers": {
            "estimated_diameter_min": 0.0366906138,
            "estimated_diameter_max": 0.0820427065
        },
        "meters": {
            "estimated_diameter_min": 36.6906137531,
            "estimated_diameter_max": 82.0427064882
        },
        "miles": {
            "estimated_diameter_min": 0.0227984834,
            "estimated_diameter_max": 0.0509789586
        },
        "feet": {
            "estimated_diameter_min": 120.3760332259,
            "estimated_diameter_max": 269.1689931548
        }
    },
    "is_potentially_hazardous_asteroid": false,
    "close_approach_data": [
        {
            "close_approach_date": "1938-09-13",
            "close_approach_date_full": "1938-Sep-13 11:03",
            "epoch_date_close_approach": -987771420000,
            "relative_velocity": {
                "kilometers_per_second": "6.6178374285",
                "kilometers_per_hour": "23824.2147425329",
                "miles_per_hour": "14803.4405437699"
            },
            "miss_distance": {
                "astronomical": "0.7943925613",
                "lunar": "309.0187063457",
                "kilometers": "118839435.114324431",
                "miles": "73843400.8160459078"
            },
            "orbiting_body": "Juptr"
        },
        {
            "close_approach_date": "1945-02-14",
            "close_approach_date_full": "1945-Feb-14 07:21",
            "epoch_date_close_approach": -785090340000,
            "relative_velocity": {
                "kilometers_per_second": "8.4440867409",
                "kilometers_per_hour": "30398.712267405",
                "miles_per_hour": "18888.5776308217"
            },
            "miss_distance": {
                "astronomical": "0.04346066",
                "lunar": "16.90619674",
                "kilometers": "6501622.1647942",
                "miles": "4039920.67959196"
            },
            "orbiting_body": "Earth"
        },
        {
            "close_approach_date": "2010-03-06",
            "close_approach_date_full": "2010-Mar-06 14:05",
            "epoch_date_close_approach": 1267884300000,
            "relative_velocity": {
                "kilometers_per_second": "9.0377409047",
                "kilometers_per_hour": "32535.8672569744",
                "miles_per_hour": "20216.5226297572"
            },
            "miss_distance": {
                "astronomical": "0.0600931292",
                "lunar": "23.3762272588",
                "kilometers": "8989804.129954804",
                "miles": "5586005.2598481352"
            },
            "orbiting_body": "Earth"
        },
        {
            "close_approach_date": "2104-11-16",
            "close_approach_date_full": "2104-Nov-16 03:57",
            "epoch_date_close_approach": 4256251020000,
            "relative_velocity": {
                "kilometers_per_second": "6.6477520216",
                "kilometers_per_hour": "23931.907277859",
                "miles_per_hour": "14870.3564971786"
            },
            "miss_distance": {
                "astronomical": "0.7858350909",
                "lunar": "305.6898503601",
                "kilometers": "117559255.769896383",
                "miles": "73047934.2576927654"
            },
            "orbiting_body": "Juptr"
        },
        {
            "close_approach_date": "2162-03-25",
            "close_approach_date_full": "2162-Mar-25 19:33",
            "epoch_date_close_approach": 6066214380000,
            "relative_velocity": {
                "kilometers_per_second": "11.7613952504",
                "kilometers_per_hour": "42341.0229014724",
                "miles_per_hour": "26309.0650356399"
            },
            "miss_distance": {
                "astronomical": "0.0692687255",
                "lunar": "26.9455342195",
                "kilometers": "10362453.792414685",
                "miles": "6438930.209445253"
            },
            "orbiting_body": "Earth"
        }
    ],
    "orbital_data": {
        "orbit_id": "12",
        "orbit_determination_date": "2020-11-30 05:18:11",
        "first_observation_date": "2010-03-20",
        "last_observation_date": "2010-04-15",
        "data_arc_in_days": 26,
        "observations_used": 34,
        "orbit_uncertainty": "8",
        "minimum_orbit_intersection": ".0467471",
        "jupiter_tisserand_invariant": "2.980",
        "epoch_osculation": "2455281.5",
        "eccentricity": ".6396154000574128",
        "semi_major_axis": "2.809849485573471",
        "inclination": "3.39107138578347",
        "ascending_node_longitude": "12.00756882471687",
        "orbital_period": "1720.37456100893",
        "perihelion_distance": "1.01262648275728",
        "perihelion_argument": "132.1308898413144",
        "aphelion_distance": "4.607072488389663",
        "perihelion_time": "2455245.720206193139",
        "mean_anomaly": "7.487163587745644",
        "mean_motion": ".2092567561501691",
        "equinox": "J2000",
        "orbit_class": {
            "orbit_class_type": "APO",
            "orbit_class_description": "Near-Earth asteroid orbits which cross the Earth’s orbit similar to that of 1862 Apollo",
            "orbit_class_range": "a (semi-major axis) > 1.0 AU; q (perihelion) < 1.017 AU"
        }
    },
    "is_sentry_object": false
}